MemberID,NameFirst,NameInitials,NameLast,Username,Password,Address,Street,Town,County,Country,Postcode,Classification
2,Sienna,null,Leon,null,null,4 Whyte Field Crossgar,null,Downpatrick,null,UK,BT30 9HB,4
3,Alfred,null,Best,null,null,5-69 Mcbriar Meadow,null,Newtownards,null,UK,BT22 2EW,2
4,Zion,null,Stark,null,null,29 St Annes Gardens,null,Derry,null,UK,BT47 3TU,6
5,Kaya,null,Melton,null,null,10 Bridge St,null,Ballymena,null,UK,BT43 5EW,5
6,Alma,null,Navarro,null,null,16-4 Union St,null,Cookstown,null,UK,BT80 8NP,2
7,Leonidas,null,Figueroa,null,null,14 Comber St,Saintsfield,Ballynahinch,null,UK,BT24 7AZ,4
8,Gael,null,Ward,null,null,35 Arkle Park,null,Downpatrick,null,UK,BT30 6BJ,5
9,Clarissa,null,Thornton,null,null,376 Church Hill Rd,null,Enniskillen,null,UK,BT93 6BR,6
10,Katelynn,null,Clay,null,null,15 Dernasigh Rd,null,Armagh,null,UK,BT60 4QD,2
11,Thalia,null,Tate,null,null,8 Kingsway Dr,null,Belfast,null,UK,BT5 7DP,3
12,Seth,null,Farrell,null,null,97-109 Darkley Rd,null,Armagh,null,UK,BT60 3BU,6
13,Karlie,null,Archer,null,null,91 Glenbryn Park,null,Belfast,null,UK,BT14 7JG,5
14,Quinn,null,Fisher,null,null,20 Acres Rd,Magheralin,Craigavon,null,UK,BT67 0RL,6
15,Riley,null,Lam,null,null,2-28 Forth Ave,WarrenPoint,Newry,null,UK,BT34 3SB,6
16,Skylar,null,Waller,null,null,7 Sandhurst Park,null,Bangor,null,UK,BT20 5NU,3
17,Samantha,null,Lopez,null,null,22 Shanco Rd,null,Clogher,null,UK,BT76 ,5
18,Bailey,null,Sampson,null,null,71 Ballyconnell,Knockateggal,Derrylin,null,UK,BT92 9AH,5
19,Keyon,null,Castaneda,null,null,16A Lurganboy Rd,null,Castlederg,null,UK,BT81 7HS,4
20,Eileen,null,Thomas,null,null,14 Slievetoye Park,null,Belfast,null,UK,BT14 8JL,2
21,Nicolas,null,Durham,null,null,4 Blackwater Rd,null,Newtownabbey,null,UK,BT36 4TZ,6
22,Kade,null,Duke,null,null,41 Blairmont Rd,null,Armagh,null,UK,BT60 2LZ,5
23,Lauryn,null,Duarte,null,null,1-5 Clachan Bride,null,Omagh,null,UK,BT79 8QH,6
24,Yandel,null,Huang,null,null,4 Meadowbank Ct,null,Newtownabbey,null,UK,BT37 0FF,2
25,Mohamed,null,Cox,null,null,42 High St,null,Belfast,null,UK,BT1 2BE,2
26,Kenyon,null,Martin,null,null,6 Struell Cl,null,Downpatrick,null,UK,BT30 6GR,6
27,Alison,null,Smith,null,null,11 Kearney Rd,Newtownards,Portaferry,null,UK,BT22 1QG,3
28,Angel,null,Calhoun,null,null,4 Glenaan Ct,null,Bangor,null,UK,BT20 4SL,6
29,Braxton,null,Richardson,null,null,9 Mountain Rd,null,Ballynahinch,null,UK,BT24 8QT,4
30,Ana,null,Hendrix,null,null,11 Richmond Ave,null,Ballymoney,null,UK,BT53 7BF,2
31,Danika,null,Stephenson,null,null,3 Edgar Boyd Ct,Carryduff,Belfast,null,UK,BT8 8PR,2
32,Joslyn,null,Coffey,null,null,1 Hazelview,null,Bangor,null,UK,BT19 7YS,5
33,Cadence,null,Harding,null,null,95 A2,null,Larne,null,UK,BT40 ,4
34,Nolan,null,Forbes,null,null,87 Main St,Greyabbey,Newtownards,null,UK,BT22 2NF,6
35,Alisson,null,Le,null,null,65 Carlingford St,null,Belfast,null,UK,BT6 8NE,3
36,Laney,null,Santiago,null,null,Unnamed Road,null,Enniskillen,null,UK,BT92 6BP,5
37,Aniyah,null,Stevenson,null,null,1 Fairgreen Ave,Keady,Armagh,null,UK,BT60 3UQ,6
38,Ezequiel,null,Hendricks,null,null,25 Mullaghsandall Rd,null,Larne,null,UK,BT40 2LU,5
39,Alivia,null,Stone,null,null,4 Milltown Row,null,Belfast,null,UK,BT12 6EU,2
40,Mariah,null,Charles,null,null,4 Molesworth Ct,null,Cookstown,null,UK,BT80 8XF,2
41,Zachariah,null,Horn,null,null,17 Bay Park,null,Larne,null,UK,BT40 1BZ,3
42,Kaydence,null,Silva,null,null,Markethill Rd,null,Armagh,null,UK,BT60 1QP,3
43,Marquis,null,Montoya,null,null,278 Ormeau Rd,null,Belfast,null,UK,BT7 2GB,2
44,Aliana,null,Ortiz,null,null,22 Coolshinney Heights,null,Magherafelt,null,UK,BT45 5JH,2
45,Harper,null,Bautista,null,null,135 Queensway,null,Lisburn,null,UK,BT27 4QS,2
46,Nasir,null,Leach,null,null,19 Smeaton Park,Moira,Crainavon,null,UK,BT67 0NF,4
47,Landen,null,Holmes,null,null,42 Corcreechy Rd,null,Newry,null,UK,BT34 1LR,2
48,Sariah,null,Pennington,null,null,Summerhill,null,Enniskillen,null,UK,BT94 2HH,5
49,Amiyah,null,Ayers,null,null,160-166 Lower Dromore Rd,Warrenpoint,Newry,null,UK,BT34 ,4
50,Shawn,null,Mosley,null,null,478 Castlereagh Rd,null,Belfast,null,UK,BT5 6BQ,6
51,Nikolas,null,Oconnor,null,null,15 Waterside,null,Lisburn,null,UK,BT28 1YH,3
52,Juliette,null,Gonzales,null,null,9 Knocklands Ct,null,Ballymoney,null,UK,BT53 6LN,2
53,Peyton,null,Booker,null,null,112 Lough Fea Rd,null,Cookstown,null,UK,BT80 9ST,6
54,Jaydon,null,Booth,null,null,Unnamed Road,null,Enniskillen,null,UK,BT74 8BF,3
55,Roger,null,Miller,null,null,3 Beagh Cottages,null,Maghera,null,UK,BT46 5EP,3
56,Clara,null,Byrd,null,null,6 Ferndale Rd,null,Derry,null,UK,BT48 8RB,4
57,Jaquan,null,Gibbs,null,null,3 Quay Ln,null,Downpatrick,null,UK,BT30 ,3
58,Jeremy,null,Harrison,null,null,9 Trench Rd,null,Newtownabbey,null,UK,BT36 4TY,3
59,Carlos,null,Crosby,null,null,25 Egeria St,null,Belfast,null,UK,BT12 5PN,5
60,Weston,null,Holden,null,null,6 The Paddock,null,Lisburn,null,UK,BT28 2YD,2
61,Mina,null,Ramsey,null,null,11 Grange Park,Dunmurry,Belfast,null,UK,BT17 0AN,3
62,Ethen,null,Stokes,null,null,1-3 The Woods,null,Larne,null,UK,BT40 1TU,6
63,Philip,null,Mcguire,null,null,8 Green Rd,Ardglass,Downpatrick,null,UK,BT30 7UA,5
64,Hugo,null,Barajas,null,null,40 Foxhill Road,null,Enniskillen,null,UK,BT94 2PE,2
65,Darryl,null,Moon,null,null,72 Upper Movilla St,null,Newtownards,null,UK,BT23 8JP,2
66,Noel,null,Lyons,null,null,1 Links Cres,Portaferry,Newtownards,null,UK,BT22 1PT,4
67,Jeramiah,null,Conrad,null,null,95 Eglantine Ave,null,Belfast,null,UK,BT9 6EX,2
68,Evie,null,Hubbard,null,null,8 Farlough Rd,null,Craigavon,null,UK,BT62 ,5
69,Kelsey,null,Mcfarland,null,null,86 Sherrigrim Rd,null,Dungannon,null,UK,BT71 4BX,5
70,Nylah,null,Lowery,null,null,12-16 St John's Cres,Portadown,Craigavon,null,UK,BT62 1EG,3
71,Savannah,null,Gross,null,null,13 Halstein Dr,null,Belfast,null,UK,BT5 6JQ,4
72,Amare,null,Mcmahon,null,null,7 Pinehill Rd,null,Belfast,null,UK,BT8 8LA,3
73,Laila,null,Garrison,null,null,6 Glenvarna Green,Glengormley,Newtownabbey,null,UK,BT36 5JF,5
74,Estrella,null,Hunt,null,null,56 B80,null,Enniskillen,null,UK,BT94 ,6
75,Bruno,null,Ruiz,null,null,67-73 Windsor Ave,null,Coleraine,null,UK,BT52 2DS,4
76,Dax,null,Ashley,null,null,Church Cres,null,Newtownabbey,null,UK,BT37 9BL,6
77,Sanaa,null,Buck,null,null,31-37 Killyliss Rd,null,Dungannon,null,UK,BT70 1QQ,6
78,Sam,null,Monroe,null,null,8 Madison Ave,null,Belfast,null,UK,BT15 5BX,4
79,Chana,null,Lin,null,null,35 Church Square,null,Banbridge,null,UK,BT32 4AP,2
80,Ryker,null,Klein,null,null,Madam's Bank Rd,null,Derry,null,UK,BT47 ,5
81,Mya,null,Stanton,null,null,Unnamed Road,null,Enniskillen,null,UK,BT94 3LN,6
82,Irvin,null,Mcbride,null,null,33 Orangefield Parade,null,Belfast,null,UK,BT5 6DE,3
83,Nataly,null,Franco,null,null,8 Granville Manor,Kells,Ballymena,null,UK,BT42 3JE,2
84,Jace,null,Montes,null,null,1-5 Milltown Rd,null,Omagh,null,UK,BT78 ,3
85,Kianna,null,Morse,null,null,20 Ormeau Embankment,null,Belfast,null,UK,BT6 ,4
86,Enzo,null,Gillespie,null,null,2 Priory Manor,null,Holywood,null,UK,BT18 0LD,6
87,Cooper,null,Bradford,null,null,2 Station Rd,null,Antrim,null,UK,BT41 1BH,5
88,Cassie,null,Steele,null,null,19 Karrington Heights,Dundonald,Belfast,null,UK,BT16 1XZ,5
89,Ace,null,Patrick,null,null,15 River Hill Dr,null,Newtownards,null,UK,BT23 7GU,3
90,Charity,null,Clarke,null,null,174 Main Rd,Cloughey,Newtownards,null,UK,BT22 1JA,3
91,Ronald,null,Watts,null,null,150 Strand Rd,null,Derry,null,UK,BT48 7PT,6
92,Olive,null,Lester,null,null,20 Shaw St,null,Belfast,null,UK,BT4 1PT,6
93,Maeve,null,Ramirez,null,null,14A Newry Rd,Forkhill,Newry,null,UK,BT35 9RN,5
94,Chris,null,Castillo,null,null,4 Laurel Ln,null,Holywood,null,UK,BT18 0JT,2
95,Alden,null,Baxter,null,null,93-95 Bloomfield Rd,null,Bangor,null,UK,BT20 4XB,6
96,Amaya,null,Phillips,null,null,Beechill Grove,null,Belfast,null,UK,BT8 7QS,2
97,Ryann,null,Horne,null,null,23 Ramone Park,Portadown,Craigavon,null,UK,BT63 5JF,2
98,Taliyah,null,Kramer,null,null,24 Kilcronagh Rd,null,Cookstown,null,UK,BT80 9HG,5
99,Garrett,null,Mccann,null,null,29 A29,null,Magherafelt,null,UK,BT45 5LL,3
100,Brett,null,Bond,null,null,31 Carnacally Rd,null,Newry,null,UK,BT34 ,5
101,Jesse,null,Pugh,null,null,81 Almond Dr,Dunmurry,Belfast,null,UK,BT17 0DG,4
102,Arianna,null,Cain,null,null,52 Claragh Rd,Clough,Downpatrick,null,UK,BT30 8RG,2
103,Gina,null,Stafford,null,null,39 Ballyknockan Rd,null,Newtownards,null,UK,BT23 6NR,5
104,Tamia,null,Elliott,null,null,14 Pilot St,null,Belfast,null,UK,BT1 3AF,6
105,Ryan,null,Buchanan,null,null,A47,null,Enniskillen,null,UK,BT93 1QP,4
106,Evangeline,null,Tyler,null,null,5 Clooney Rd,null,Derry,null,UK,BT47 6TB,6
107,Amina,null,Hill,null,null,Diamond House 15,Royal Avenue,Belfast,null,UK,BT1 1FB,6
108,Jocelyn,null,Duran,null,null,17 Mountainhill Rd,null,Belfast,null,UK,BT14 8PG,4
109,Keyla,null,Carey,null,null,27 Annadorn Rd,null,Downpatrick,null,UK,BT30 8JU,3
110,Emanuel,null,Kelly,null,null,9 Tully,Irvinestown,Enniskillen,null,UK,BT94 1RE,4
111,Alani,null,Leonard,null,null,17 Gillespie Ct,Comber,Newtownards,null,UK,BT23 5GL,6
112,Killian,null,Joseph,null,null,8 Rowley Cl,null,Newcastle,null,UK,BT33 0UE,4
113,Joe,null,Coleman,null,null,48 Dalriada Dr,null,Newtownabbey,null,UK,BT37 0QA,4
114,Tyson,null,Harris,null,null,32 Sheridan Rd,null,Enniskillen,null,UK,BT94 2JG,5
115,Tessa,null,Dominguez,null,null,9 Ballougry Rd,null,Derry,null,UK,BT48 ,6
116,Adrien,null,Cole,null,null,23 Skyline Dr,null,Lisburn,null,UK,BT27 4HH,5
117,Yadiel,null,Boyd,null,null,4 University Gardens,null,Coleraine,null,UK,BT52 1JT,3
118,Ansley,null,Delacruz,null,null,7 Dunclare Heights,null,Dungannon,null,UK,BT71 7QW,6
119,Melody,null,Terrell,null,null,32 Mulberry Park,Dunmurry,Belfast,null,UK,BT17 0DJ,5
120,Azul,null,Atkinson,null,null,2 Oakley Ave,null,Holywood,null,UK,BT18 9FF,3
121,Melany,null,Frederick,null,null,3-13 Drumbeg Dr,null,Lisburn,null,UK,BT28 1PQ,6
122,Erin,null,Lynn,null,null,20 Market St,Moneymore,Magherafelt,null,UK,BT45 7PE,6
123,Bethany,null,Collier,null,null,6 McCartney Park,null,Derry,null,UK,BT48 0AE,5
124,Brynn,null,Evans,null,null,20-24 Steedstown Rd,null,Lisburn,null,UK,BT28 ,3
125,Aleah,null,Koch,null,null,133 Windmill Rd,null,Hillsborough,null,UK,BT26 6NP,6
126,Francisco,null,Gallegos,null,null,54 Killyvally Rd,Garvagh,Coleraine,null,UK,BT51 5LX,3
127,Colby,null,Sloan,null,null,10 Ivybank Rd,Moneymore,Magherafelt,null,UK,BT45 7YS,6
128,Haleigh,null,Morales,null,null,5 Kilclean Rd,null,Castlederg,null,UK,BT81 ,2
129,Amelie,null,Jacobs,null,null,75-77 Kilskeery Rd,null,Omagh,null,UK,BT78 3RH,3
130,Sawyer,null,Yates,null,null,2 Carnhill Grove,Glengormley,Newtownabbey,null,UK,BT36 6LS,5
131,Kamora,null,Lawson,null,null,2A Ballymaginaghy Rd,null,Castlewellan,null,UK,BT31 9BH,5
132,Mitchell,null,Welch,null,null,19 Ballyblack Rd E,null,Newtownards,null,UK,BT22 2AB,5
133,Yuliana,null,Maldonado,null,null,47 Kevlin Ave,null,Omagh,null,UK,BT78 1ER,4
134,Eugene,null,Peters,null,null,8 Cortreasla Rd,Silverbridge,Newry,null,UK,BT35 9LZ,5
135,Haylie,null,Salinas,null,null,30 Osborne St,null,Derry,null,UK,BT48 0HT,2
136,Phoenix,null,Cardenas,null,null,2 Sandyholme Way,Glengormley,Newtownabbey,null,UK,BT36 5BH,4
137,Alicia,null,Christensen,null,null,14 Drumclay Rd,null,Enniskillen,null,UK,BT74 6NG,6
138,Amaris,null,Kim,null,null,26 Derrybeg Lane,null,Newry,null,UK,BT35 6JW,3
139,Grant,null,Webster,null,null,279 Gola Rd,null,Enniskillen,null,UK,BT92 0PD,4
140,Phoebe,null,Peck,null,null,121 Hightown Rd,null,Newtownabbey,null,UK,BT36 7AU,6
141,Messiah,null,Odom,null,null,14 Abbots Dr,null,Newtownabbey,null,UK,BT37 9RD,6
142,Miguel,null,Hooper,null,null,26 Colinward St,null,Belfast,null,UK,BT12 7EP,4
143,Terrence,null,Lewis,null,null,98 Ballygassoon Rd,null,Armagh,null,UK,BT61 8LZ,2
144,Blaine,null,Drake,null,null,5 Old Mill Cl,Rathfirland,Newry,null,UK,BT34 5FB,5
145,Jadyn,null,Bailey,null,null,299 Moorlough Rd,Newtownbutler,Enniskillen,null,UK,BT92 8JW,5
146,Ayana,null,Boyle,null,null,2-22 Drumragh End,Castlereagh,Belfast,null,UK,BT6 0EB,3
147,Micaela,null,Benson,null,null,30 Lisleen Rd,null,Castlederg,null,UK,BT81 7QN,3
148,Kierra,null,Ware,null,null,12 Kernan Rd,Gilford,Craigavon,null,UK,BT63 6BU,6
149,Thomas,null,Pratt,null,null,200-212 Old Belfast Rd,null,Bangor,null,UK,BT19 ,5
150,Lilah,null,Barron,null,null,34 Garden St,null,Magherafelt,null,UK,BT45 5DD,4
151,Miranda,null,Shields,null,null,115 Mount Eden,null,Limavady,null,UK,BT49 0TN,3
152,Jakob,null,Spencer,null,null,25 Bridle Loanan,Warrenpoint,Newry,null,UK,BT34 3PD,5
153,Gage,null,Park,null,null,1 Blackslee Ct,Derrygonnlley,Enniskillen,null,UK,BT93 6HT,6
154,Elliot,null,Hoover,null,null,23 Orchard Park,Portadown,Craigavon,null,UK,BT62 3JU,6
155,Shane,null,Chase,null,null,5 Brown Dr,null,Maghera,null,UK,BT46 5HQ,3
156,Hayley,null,Poole,null,null,27 Montgomery Dr,null,Lisburn,null,UK,BT27 5HR,4
157,Jaden,null,Rowe,null,null,1 Trasna Park,null,Enniskillen,null,UK,BT74 7NG,2
158,Shelby,null,Boone,null,null,17 Bryandrum Rd,null,Armagh,null,UK,BT60 ,6
159,Uriah,null,Cobb,null,null,6 Cotter's Bridge,Bessbrook,Newry,null,UK,BT35 7GZ,5
160,Rylee,null,Short,null,null,9 Mullaghacall Rd,null,Portstewart,null,UK,BT55 7EG,6
161,Alissa,null,Pineda,null,null,39 Silverbridge Rd,Silverbridge,Newry,null,UK,BT35 9LG,6
162,Geovanni,null,Mcdonald,null,null,24 Mount Charles,null,Belfast,null,UK,BT7 1NZ,4
163,Zara,null,Contreras,null,null,67-93 Kinrush Rd,null,Cookstown,null,UK,BT80 ,5
164,Aniya,null,Green,null,null,5 Albertville Dr,null,Belfast,null,UK,BT14 7BX,5
165,Adyson,null,Hatfield,null,null,38 Boolawater Road,null,Enniskillen,null,UK,BT93 8AW,6
166,Cloe,null,Rich,null,null,30 Lord Warden's Manor,null,Bangor,null,UK,BT19 1YW,6
167,Jazmin,null,Alvarez,null,null,94 Letter Road,null,Enniskillen,null,UK,BT93 ,2
168,Leonel,null,Riley,null,null,50 Comber Rd,Killinchy,Newtownards,null,UK,BT23 6PB,3
169,Charlotte,null,Irwin,null,null,97 Laharna Ave,null,Larne,null,UK,BT40 1NY,2
170,Elias,null,Kirk,null,null,6 Cloverhill Glen,null,Bangor,null,UK,BT19 6XX,4
171,Charles,null,Greene,null,null,11 Castlehill Grove,null,Ballymoney,null,UK,BT53 6SZ,3
172,Jairo,null,Griffith,null,null,6 Steeple Gardens,null,Antrim,null,UK,BT41 1BW,6
173,Audrina,null,Harmon,null,null,12 Millbrook Rd,null,Omagh,null,UK,BT78 ,4
174,Matteo,null,Trujillo,null,null,12 Castle Hill Park,Ballygawley,Dungannon,null,UK,BT70 2LN,5
175,Aracely,null,Reed,null,null,14 Drumard Park,Upperlands,Maghera,null,UK,BT46 5XW,2
176,Alexis,null,Daniels,null,null,Evangelical Bookshop,Dublin 8,Enniskillen,null,UK,BT74 Rd6HH,2
177,Titus,null,Olsen,null,null,90 Drumnaquoile Rd,null,Ballynahinch,null,UK,BT24 8QP,3
178,Casey,null,Mendez,null,null,Ned Road,null,Enniskillen,null,UK,BT92 9NG,6
179,Ariana,null,Nichols,null,null,11 Brandon Grove,null,Bangor,null,UK,BT19 7SN,2
180,Yaritza,null,Diaz,null,null,53 Westbourne Cres,null,Coleraine,null,UK,BT51 3HQ,5
181,Braeden,null,Leblanc,null,null,1 Wellington Park Cl,Moira,Craigavon,null,UK,BT67 0UN,6
182,Asher,null,Jennings,null,null,12-16 Milltown Rd,null,Downpatrick,null,UK,BT30 7EE,6
183,Leila,null,Atkins,null,null,1 Meadow Hill,Newtownstewart,Omagh,null,UK,BT78 4HF,5
184,Maximillian,null,Frey,null,null,7 Gortgranagh Dr,null,Coleraine,null,UK,BT51 3NQ,2
185,Saniyah,null,Medina,null,null,4 Church View,null,Dromore,null,UK,BT25 1AB,6
186,Tristan,null,Marshall,null,null,30 Islandhill Rd,Millisle,Newtownards,null,UK,BT22 2BS,2
187,Ashanti,null,Haley,null,null,22-40 Church St,null,Armagh,null,UK,BT60 3UP,3
188,Adalynn,null,Cook,null,null,188 Hillhall Rd,null,Lisburn,null,UK,BT27 5JA,6
189,Rene,null,Nixon,null,null,91 Kimberley St,null,Belfast,null,UK,BT7 3DZ,4
190,Azaria,null,Simpson,null,null,18 Ardglen Park,null,Derry,null,UK,BT48 0AX,5
191,Elvis,null,Caldwell,null,null,10 Hesketh Gardens,null,Belfast,null,UK,BT14 7JT,2
192,Miles,null,Travis,null,null,34 Corcrain Dr,Portadown,Craigavon,null,UK,BT62 4AW,4
193,Kale,null,Barnes,null,null,21 Old Channel Rd,null,Belfast,null,UK,BT3 9DE,6
194,Damion,null,Jimenez,null,null,5 College Ct,null,Belfast,null,UK,BT1 6BS,3
195,Alonzo,null,Bartlett,null,null,46-58 Drumenny Rd,null,Cookstown,null,UK,BT80 0BY,6
196,Marco,null,Chung,null,null,7 Magheraboy Walk,null,Portrush,null,UK,BT56 8FZ,5
197,Cannon,null,Hurst,null,null,86 Lisnacroppan Rd,Ballynaskeagh,Banbridge,null,UK,BT32 5DA,6
198,Gisselle,null,Deleon,null,null,7 Craigmore Way,null,Belfast,null,UK,BT7 1PE,3
199,Jaidyn,null,Webb,null,null,35 Abbeycroft Dr,null,Newtownabbey,null,UK,BT37 0YL,6
200,Felix,null,Ballard,null,null,74 Balloo Walk,null,Bangor,null,UK,BT19 7HL,6
201,Milton,null,Mccarty,null,null,52a Carnhill,null,Derry,null,UK,BT48 ,3
202,Joselyn,null,Fernandez,null,null,10 Balmoral Ave,null,Belfast,null,UK,BT9 7GR,2
203,Hailie,null,Mcdowell,null,null,30 Bann Rd,Kilea,Coleraine,null,UK,BT51 5RX,6
204,Kennedy,null,Lynch,null,null,5 Ritchies Villas,null,Magherafelt,null,UK,BT45 6ER,2
205,Mylie,null,Vaughan,null,null,Larne Rd,Millbrook,Larne,null,UK,BT40 2SL,3
206,Braylon,null,Sosa,null,null,2 Quarry Rd,null,Dungannon,null,UK,BT70 1QJ,5
207,Aisha,null,Burke,null,null,10-12 Dublin Rd,null,Antrim,null,UK,BT41 ,3
208,Lamar,null,Stephens,null,null,6 Beechill Grove,null,Lisburn,null,UK,BT28 3UB,4
209,Kyle,null,Downs,null,null,75-97 Straid Rd,null,Ballymena,null,UK,BT42 2JQ,5
210,Katrina,null,Howell,null,null,4 Tobergel Ln,null,Larne,null,UK,BT40 2LQ,2
211,Rishi,null,Golden,null,null,224 Roden St,null,Belfast,null,UK,BT12 5QE,2
212,Sage,null,Arroyo,null,null,15 Main St,Carnteel,Aughnacloy,null,UK,BT69 6EA,5
213,Kirsten,null,Graham,null,null,4 Chestnut Way,null,Larne,null,UK,BT40 2SE,3
214,Daisy,null,Cantu,null,null,Unnamed Road,null,Enniskillen,null,UK,BT92 ,4
215,Mireya,null,Kent,null,null,1-37 Kylemore Dr,null,Omagh,null,UK,BT79 7LL,5
216,Alaina,null,Luna,null,null,N Edward St,null,Derry,null,UK,BT48 7EP,6
217,Edgar,null,Black,null,null,5 Glenside Dr,null,Belfast,null,UK,BT14 ,5
218,Troy,null,Sullivan,null,null,32 Laharna Ave,null,Larne,null,UK,BT40 1NG,4
219,Keenan,null,Gutierrez,null,null,17 Blackrock Ln,null,Newtownabbey,null,UK,BT36 4NQ,5
220,Lennon,null,Wade,null,null,5 Stonebridge Dr,Conlig,Newtownards,null,UK,BT23 7QS,4
221,Edith,null,Molina,null,null,14 Wolfhill Ave S,null,Belfast,null,UK,BT14 8NT,5
222,Mayra,null,Austin,null,null,21 Church Cres,null,Bangor,null,UK,BT20 3EF,5
223,Kali,null,Faulkner,null,null,6 Woodview Terrace,null,Caledon,null,UK,BT68 4XQ,5
224,Cohen,null,Hall,null,null,7 Holly Manor,null,Newtownabbey,null,UK,BT36 7WQ,6
225,Colin,null,Hobbs,null,null,82 The Quay,Dundrum,Newcastle,null,UK,BT33 0UJ,3
226,Lillianna,null,Neal,null,null,26 Henrietta St,null,Belfast,null,UK,BT2 8LW,4
227,Liam,null,Wilkins,null,null,30-32 Crooked Stone Rd,null,Antrim,null,UK,BT41 4SP,5
228,Jimmy,null,Page,null,null,68 Newtownards Rd,null,Bangor,null,UK,BT20 4DR,5
229,Nadia,null,Edwards,null,null,238 Derrylee Rd,null,Dungannon,null,UK,BT71 6NY,5
230,Niko,null,Hodge,null,null,18 Glenhead Rd,null,Ballymena,null,UK,BT42 4RE,6
231,Carson,null,Guerra,null,null,44 Listooder Rd,Crossgar,Downpatrick,null,UK,BT30 9JF,4
232,Carlee,null,Hickman,null,null,1 Milltown Rd,Derrylin,Enniskillen,null,UK,BT92 9LF,3
233,Livia,null,Carrillo,null,null,16-24 Castlewellan Rd,null,Newry,null,UK,BT34 5UY,3
234,Alvin,null,Owen,null,null,8 Royal Oaks,null,Belfast,null,UK,BT8 6YX,4
235,Ingrid,null,Maynard,null,null,1 Leroy St,null,Belfast,null,UK,BT14 8AU,2
236,Zaria,null,Hopkins,null,null,1 Carrickfern Cl,Greenisland,Carrickfergus,null,UK,BT38 8FR,2
237,Kaitlynn,null,Hale,null,null,3 Altan Dr,Dunmurry,Belfast,null,UK,BT17 0UD,4
238,Kaylen,null,Juarez,null,null,2-58 Seaview Cl,Ardglass,Downpatrick,null,UK,BT30 7SQ,2
239,Kendall,null,Bridges,null,null,2 Prospect Way,Lurgan,Craigavon,null,UK,BT66 6DY,4
240,Averi,null,Berg,null,null,2-12 Lemons Rd,null,Newtownards,null,UK,BT22 1BY,5
241,Maddison,null,Dickson,null,null,3 Cumberland Gate,Dundonald,Belfast,null,UK,BT16 2GE,6
242,Victor,null,Glenn,null,null,11 Cahore Rd,Draperstown,Magherafelt,null,UK,BT45 7AP,3
243,Cherish,null,Long,null,null,1 Marvista Ave,null,Ballyclare,null,UK,BT39 9JZ,5
244,Cristopher,null,Rodriguez,null,null,11 Exchange St,null,Belfast,null,UK,BT1 2LS,2
245,Jay,null,Fuller,null,null,25 Highfield Rd,null,Magherafelt,null,UK,BT45 5BN,6
246,Tiana,null,Munoz,null,null,103 Fintona Rd,null,Clogher,null,UK,BT76 0XA,3
247,Roderick,null,Wood,null,null,15 Church St Ct,null,Newtownards,null,UK,BT23 4BZ,4
248,India,null,Mcintyre,null,null,106 Princetown Rd,null,Bangor,null,UK,BT20 3TG,5
249,Donavan,null,Hardin,null,null,11-25 The Cairn Rd,Collone,Armagh,null,UK,BT60 2BR,2
250,Bryson,null,Mooney,null,null,10 Avonmore Park,null,Lisburn,null,UK,BT28 1NA,3
251,Aspen,null,Allen,null,null,19 Clooney Terrace,null,Derry,null,UK,BT47 6AW,3
252,Colt,null,Ortega,null,null,179-255 Carnteel Rd,null,Dungannon,null,UK,BT70 ,5
253,Reilly,null,Cherry,null,null,12 Town Brae,Glenarm,Ballymena,null,UK,BT44 0EE,3
254,Rebekah,null,Calderon,null,null,119 Duncastle Rd,Newbuildings,Derry,null,UK,BT47 2SN,5
